#dP2021  1 15  0  0  0.00000000      96 __u+U ITR00 FIT  IAC
## 2140 432000.00000000   900.00000000 59229 0.0000000000000
+  115   C06C07C08C09C10C11C12C13C14C16C19C20C21C22C23C24C25
+        C26C27C28C29C30C32C33C34C35C36C37C38C39C40C43C44C45
+        C46E01E02E03E04E05E07E08E09E11E12E13E14E15E18E19E21
+        E24E25E26E27E30E31E33E36G01G02G03G04G05G06G07G08G09
+        G10G11G12G13G14G15G16G17G18G19G20G21G22G23G24G25G26
+        G27G28G29G30G31G32J01J02J03R01R02R03R04R05R07R08R09
+        R11R12R13R14R15R16R17R18R19R20R21R22R24  0  0  0  0
++         8  9  7  0  9  8  8  8  7  8  6  8  6  6  7  7  6
++         8  7  7  9  8  7  7  6  8  8  7  9 12  8  8 11 10
++        10  6  7  7  7  7  6  7  6  7  8  7  6  7  7  8  6
++         7  7  7  7  6  7  6  7  6  6  6  7  6  5  6  5  6
++         7  6  6  6  6  6  6  6  7  6  8  6  6  7  6  6  6
++         7  6  6  5  7  7 10  7  7  6  7  6  7  7  7  8  6
++         6  6  6  8  8  8  7  8  7  8  7  6  8  0  0  0  0
%c M  cc GPS ccc cccc cccc cccc cccc ccccc ccccc ccccc ccccc
%c cc cc ccc ccc cccc cccc cccc cccc ccccc ccccc ccccc ccccc
%f  0.0000000  0.000000000  0.00000000000  0.000000000000000
%f  0.0000000  0.000000000  0.00000000000  0.000000000000000
%i    0    0    0    0      0      0      0      0         0
%i    0    0    0    0      0      0      0      0         0
/* INFORMATION & ANALYSIS CENTER (IAC)      ULTRA-RAPID DATA
/* S/V CLOCKS ARE ALIGNED TO GNSS TIME                      
/* G:C1WC2W R:C1PC2P E:C1XC5X C:C2IC6I J:C1CC2S             
/* PCV:IGS14_2134 OL/AL:FES2004  NONE     YN ORB:CoN CLK:CoN
*  2021 01 15 15 15  0.00000000
PC06 -14316.676147  20856.573163 -33381.258849      7.528328
PC07 -20631.964397  35125.628359  10020.967548   -229.771713
PC08  -5761.635154  34365.033386  24121.288833   -898.886970
PC09   4218.178110  26138.363853 -32481.607521 999999.999999
PC10 -10130.733892  35630.927456  19942.206885   -103.610126
PC11   -694.798208  16316.572838  22703.637607   -888.058842
PC12 -18544.544925   5658.885547  20104.514751    731.568465
PC13   3953.917639  40645.717211  11191.216960     98.968447
PC14 -10908.747579  20575.164364 -15317.143587    -90.557654
PC16 -12482.665410  21248.898470 -34158.660279   -660.828689
PC19   1189.593095 -18469.697166  20910.126981    691.894203
PC20  17853.943138 -19676.401977   8584.585382   -909.523506
PC21 -24619.572227   9095.525500   9473.212162   -794.174938
PC22 -16615.765158  -6548.561904  21436.074063   -845.632680
PC23  13716.176714  16916.105752  17453.900488   -881.337020
PC24  -9097.318528  21803.944660 -14888.769781   -742.364899
PC25   4392.782308  27467.509206   2389.737122   -898.322277
PC26 -15704.361839   4766.755533 -22581.591402    962.570937
PC27  24343.579307   1626.181107 -13542.089905    466.858275
PC28  23576.529544  14487.006602   3640.129136   -121.418483
PC29  -9691.579247 -18439.674502 -18572.545673    338.938334
PC30  10853.571467 -12268.550458 -22588.667464    431.582499
PC32  24555.216659  -9287.089968  -9456.893325   -883.742361
PC33  -1160.663196  18515.244853 -20841.263259   -916.223636
PC34 -10282.395518  12632.924817  22658.357088   -762.551849
PC35 -23953.792868 -13816.445896  -3889.336030   -464.424168
PC36  -3530.465982 -27598.813937  -2067.006271   -776.527863
PC37  15938.201363  -3390.565118  22665.817520   -860.646050
PC38  -5753.324829  35575.593019  22012.368344    124.065487
PC39  -9103.920250  22618.404378 -34407.199612 999999.999999
PC40 -19524.543123  32747.402753  17868.760803    121.521165
PC43   9079.435813  18546.283275  18759.169939   -553.281012
PC44 -24531.660562   -943.015922  13299.153935 999999.999999
PC45 -13689.569722 -16804.028457 -17561.660717    335.971831
PC46   8516.349302 -22347.516371  14347.397122    450.967737
PE01  18866.077734  -9191.468295  20870.053609  -1025.338658
PE02 -18880.341588   9343.508059 -20805.213186    191.243559
PE03 -29174.317884   4862.496717  -1045.000581   -387.626358
PE04  18276.406362 -15193.935646  17641.442944   -689.394416
PE05 -23119.613292  -8483.090512  16419.454142   -312.678523
PE07   3632.437482  16749.234615 -24134.562793   -488.020318
PE08 -17925.349942  15290.803237 -17917.066293   6061.648175
PE09  -3850.988161 -16559.315993  24228.355425   5798.210477
PE11 -10229.933365 -25196.001639 -11706.776328   6466.047815
PE12   7272.641705 -15969.415756 -23831.710950   5405.423228
PE13  10017.232565  25095.257871  12094.147332    410.311296
PE14 -12465.729696  11590.854215  16053.026749  -1295.675268
PE15  -7134.196703  15981.116965  23885.557530    834.151453
PE18  13548.238183 -17710.981033 -23793.240059  -1416.087215
PE19  29386.929475  -3325.926572  -1164.673293    179.093210
PE21  12708.209181  11662.132131  24055.850508   -642.997068
PE24   1545.010540 -26609.227191 -12851.512678   -691.018406
PE25 -12619.234606 -11816.951861 -24019.682356   -524.375747
PE26  21375.168224  19090.681465  -7403.401578   2262.220777
PE27  -1008.546050  26409.797827  13350.292956     50.573862
PE30 -14556.639895  25119.922533  -5837.862737   3260.770008
PE31  14050.975963 -25534.241509   5146.277864   -477.378935
PE33  20061.803982   2526.740394 -21602.160601   -464.880620
PE36 -21266.825256 -19435.378245   6813.453632    453.893081
PG01 -16938.522644  -5377.211817  19609.566902    779.721474
PG02  14072.529346  22398.568591  -1634.870984   -566.266609
PG03 -18973.752181   6743.053607  17187.412183    -56.988957
PG04 -26436.670083  -1114.446492  -2596.080949   -172.917652
PG05   9955.318280  12479.507504 -21355.712227    -31.055062
PG06   4124.243384  24238.006023  10052.029366     -4.563096
PG07 -11206.863482  11215.970976 -20906.478195     22.619219
PG08 -25600.386647  -5330.598799  -5474.617681     -6.688544
PG09 -21544.701169   8153.141182 -13302.671089   -313.008611
PG10  10522.573978 -23367.665249   6524.333693    -39.762190
PG11 -23074.285632  -9058.435663   8572.747266    -52.261844
PG12  18081.737045  -1996.271268  19052.242179     12.588281
PG13  19146.451195  13221.074728 -13055.748409     86.209180
PG14 -13011.377342  22669.019135   4702.920561     85.817830
PG15  26209.412567   2795.617556  -4945.740707   -176.143391
PG16  -7686.524772 -13650.466833 -21608.055245   -265.477915
PG17  -5496.717022  14181.700411  22206.394875    380.575736
PG18   9297.713376 -13968.236109 -20579.164482    341.429112
PG19   3118.990240  15098.695465  21357.958909    -51.557463
PG20  15440.536849 -20464.306920  -6442.431058    525.159873
PG21 -19087.713614 -12033.859985  15066.973400     87.046804
PG22 -16533.362949  -2022.621683  20857.103748   -697.723737
PG23  16638.067162 -20253.821623  -4189.567653    116.151579
PG24  18902.840442   9139.446110  16252.874019      3.644602
PG25  18935.930834 -15314.883743  10005.244589     60.318259
PG26    316.546823 -21517.686992 -15440.515155     30.325071
PG27 -17436.246245 -12308.415618 -16189.319262    -56.550029
PG28 -11160.102110  22746.878956   8841.047192    629.361598
PG29  22558.781298  -5359.746987 -13030.503564   -276.288124
PG30  -3384.182732  20968.368692 -15767.288024   -369.337657
PG31  -5366.498539 -24684.798022   7308.890067    -94.049142
PG32   3876.944278 -15013.023974  21642.737342     14.426293
PJ01 -36027.734069  20180.823630  -3778.865861   -336.616309
PJ02 -23393.056027  30927.398683 -11963.489010      0.772444
PJ03 -26371.178304  23560.133986  28027.715513     -0.114069
PR01  17142.086133 -14496.529239  12118.604122     73.536987
PR02  -2924.785321 -10596.848073  23051.124127    462.987010
PR03 -18639.273517   -793.480790  17461.129251     29.209860
PR04 -23629.757810   9385.606158   2135.485546     70.102512
PR05 -15519.526507  14221.525740 -14419.995173     64.799877
PR07  18979.228111    408.232909 -16980.528345    -42.166047
PR08  23598.427059  -9434.524887  -1993.844257    -56.851103
PR09   2715.348738  23304.286163   9945.872922     18.740545
PR11  10795.537007  -9579.166895  21042.077039      4.532153
PR12   6109.036418 -23494.567058   7810.563865    196.893968
PR13  -2456.962245 -23514.245865  -9587.776377    -49.324386
PR14  -9552.975145  -9418.625261 -21688.440079     59.892468
PR15 -11003.173055   9788.839515 -20812.677313    105.887946
PR16  -5275.744449  24056.897336  -6927.518433    -10.230103
PR17 -21267.345844 -13613.311481   3489.155156    391.497858
PR18 -17683.277695  -2906.451722  18198.928219     63.264935
PR19  -5501.955709   8848.960659  23289.653599   -128.002683
PR20  12123.052877  17430.643342  14119.592753   -431.185285
PR21  21363.957615  13182.693646  -4592.641723   -180.576324
PR22  16913.343358   2071.026753 -18948.108144    -92.625901
PR24 -12760.643663 -17576.499967 -13341.701989     27.895742
EOF
